[{"OBJECT_NAME":"ICESAT-2","OBJECT_ID":"2018-070A","EPOCH":"2026-03-09T22:54:12.225888","MEAN_MOTION":15.28328617,"ECCENTRICITY":0.00038245,"INCLINATION":91.9993,"RA_OF_ASC_NODE":264.2397,"ARG_OF_PERICENTER":123.8941,"MEAN_ANOMALY":236.2673,"EPHEMERIS_TYPE":0,"CLASSIFICATION_TYPE":"U","NORAD_CAT_ID":43613,"ELEMENT_SET_NO":999,"REV_AT_EPOCH":41730,"BSTAR":0.00014022643,"MEAN_MOTION_DOT":3.87e-5,"MEAN_MOTION_DDOT":0},{"OBJECT_NAME":"STARLINK-30826","OBJECT_ID":"2023-167P","EPOCH":"2026-03-09T22:00:01.999584","MEAN_MOTION":15.27573902,"ECCENTRICITY":0.00018071,"INCLINATION":43.0009,"RA_OF_ASC_NODE":142.099,"ARG_OF_PERICENTER":284.1661,"MEAN_ANOMALY":305.1033,"EPHEMERIS_TYPE":0,"CLASSIFICATION_TYPE":"U","NORAD_CAT_ID":58188,"ELEMENT_SET_NO":999,"REV_AT_EPOCH":578,"BSTAR":-0.00084702889,"MEAN_MOTION_DOT":-0.00023493,"MEAN_MOTION_DDOT":0}]
